{
"type": "FeatureCollection",
"name": "cool_it_sites",
"crs": { "type": "name", "properties": { "name": "urn:ogc:def:crs:OGC:1.3:CRS84" } },
"features": [
{ "type": "Feature", "properties": { "feature_type": "Misting Station", "property_name": "Newtown Barge Playground", "borough": "Brooklyn", "longitude": -73.9597827021, "latitude": 40.735982050700002 }, "geometry": { "type": "Point", "coordinates": [ -73.9597827021, 40.735982050700002 ] } },
{ "type": "Feature", "properties": { "feature_type": "Hydrant Spray Cap", "property_name": "Randall's Island Park", "borough": "Manhattan", "longitude": -73.934913286400004, "latitude": 40.783631607300002 }, "geometry": { "type": "Point", "coordinates": [ -73.934913286400004, 40.783631607300002 ] } },
{ "type": "Feature", "properties": { "feature_type": "Hydrant Spray Cap", "property_name": "Randall's Island Park", "borough": "Manhattan", "longitude": -73.934148280100004, "latitude": 40.783371224900002 }, "geometry": { "type": "Point", "coordinates": [ -73.934148280100004, 40.783371224900002 ] } },
{ "type": "Feature", "properties": { "feature_type": "Misting Station", "property_name": "Rockaway Beach Boardwalk", "borough": "Queens", "longitude": -73.829813394799999, "latitude": 40.579325857400001 }, "geometry": { "type": "Point", "coordinates": [ -73.829813394799999, 40.579325857400001 ] } },
{ "type": "Feature", "properties": { "feature_type": "Misting Station", "property_name": "Rockaway Beach Boardwalk", "borough": "Queens", "longitude": -73.828584944400006, "latitude": 40.579696618200003 }, "geometry": { "type": "Point", "coordinates": [ -73.828584944400006, 40.579696618200003 ] } },
{ "type": "Feature", "properties": { "feature_type": "Hydrant Spray Cap", "property_name": "Randall's Island Park", "borough": "Manhattan", "longitude": -73.931614230099996, "latitude": 40.782843755999998 }, "geometry": { "type": "Point", "coordinates": [ -73.931614230099996, 40.782843756 ] } },
{ "type": "Feature", "properties": { "feature_type": "Misting Station", "property_name": "Rockaway Beach Boardwalk", "borough": "Queens", "longitude": -73.827263152499995, "latitude": 40.580063302900001 }, "geometry": { "type": "Point", "coordinates": [ -73.827263152499995, 40.580063302900001 ] } },
{ "type": "Feature", "properties": { "feature_type": "Misting Station", "property_name": "Sgt. William Dougherty Playground", "borough": "Brooklyn", "longitude": -73.937091696799996, "latitude": 40.723779165400003 }, "geometry": { "type": "Point", "coordinates": [ -73.937091696799996, 40.723779165400003 ] } },
{ "type": "Feature", "properties": { "feature_type": "Misting Station", "property_name": "Rockaway Beach Boardwalk", "borough": "Queens", "longitude": -73.826437031400005, "latitude": 40.580299610300003 }, "geometry": { "type": "Point", "coordinates": [ -73.826437031400005, 40.580299610300003 ] } },
{ "type": "Feature", "properties": { "feature_type": "Misting Station", "property_name": "Rockaway Beach Boardwalk", "borough": "Queens", "longitude": -73.824877060099993, "latitude": 40.580768961799997 }, "geometry": { "type": "Point", "coordinates": [ -73.824877060099993, 40.580768961799997 ] } },
{ "type": "Feature", "properties": { "feature_type": "Misting Station", "property_name": "Rockaway Beach Boardwalk", "borough": "Queens", "longitude": -73.823719418400003, "latitude": 40.581092454100002 }, "geometry": { "type": "Point", "coordinates": [ -73.823719418400003, 40.581092454100002 ] } },
{ "type": "Feature", "properties": { "feature_type": "Misting Station", "property_name": "Rockaway Beach Boardwalk", "borough": "Queens", "longitude": -73.822748458500001, "latitude": 40.581336905500002 }, "geometry": { "type": "Point", "coordinates": [ -73.822748458500001, 40.581336905500002 ] } },
{ "type": "Feature", "properties": { "feature_type": "Misting Station", "property_name": "Rockaway Beach Boardwalk", "borough": "Queens", "longitude": -73.816174902300006, "latitude": 40.583167003 }, "geometry": { "type": "Point", "coordinates": [ -73.816174902300006, 40.583167003 ] } },
{ "type": "Feature", "properties": { "feature_type": "Misting Station", "property_name": "Rockaway Beach Boardwalk", "borough": "Queens", "longitude": -73.812710562500001, "latitude": 40.583990776 }, "geometry": { "type": "Point", "coordinates": [ -73.812710562500001, 40.583990776 ] } },
{ "type": "Feature", "properties": { "feature_type": "Misting Station", "property_name": "Rockaway Beach Boardwalk", "borough": "Queens", "longitude": -73.811573306300005, "latitude": 40.5842702534 }, "geometry": { "type": "Point", "coordinates": [ -73.811573306300005, 40.5842702534 ] } },
{ "type": "Feature", "properties": { "feature_type": "Misting Station", "property_name": "Rockaway Beach Boardwalk", "borough": "Queens", "longitude": -73.809524099000001, "latitude": 40.584987274299998 }, "geometry": { "type": "Point", "coordinates": [ -73.809524099, 40.584987274299998 ] } },
{ "type": "Feature", "properties": { "feature_type": "Misting Station", "property_name": "Rockaway Beach Boardwalk", "borough": "Queens", "longitude": -73.808188358699994, "latitude": 40.585478592500003 }, "geometry": { "type": "Point", "coordinates": [ -73.808188358699994, 40.585478592500003 ] } },
{ "type": "Feature", "properties": { "feature_type": "Misting Station", "property_name": "Rockaway Beach Boardwalk", "borough": "Queens", "longitude": -73.806407372699994, "latitude": 40.585938944900001 }, "geometry": { "type": "Point", "coordinates": [ -73.806407372699994, 40.585938944900001 ] } },
{ "type": "Feature", "properties": { "feature_type": "Misting Station", "property_name": "Rockaway Beach Boardwalk", "borough": "Queens", "longitude": -73.805502932699994, "latitude": 40.586000868500001 }, "geometry": { "type": "Point", "coordinates": [ -73.805502932699994, 40.586000868500001 ] } },
{ "type": "Feature", "properties": { "feature_type": "Misting Station", "property_name": "Rockaway Beach Boardwalk", "borough": "Queens", "longitude": -73.804625314500001, "latitude": 40.586075012899997 }, "geometry": { "type": "Point", "coordinates": [ -73.804625314500001, 40.586075012899997 ] } },
{ "type": "Feature", "properties": { "feature_type": "Misting Station", "property_name": "Rockaway Beach Boardwalk", "borough": "Queens", "longitude": -73.803412956299994, "latitude": 40.586164638299998 }, "geometry": { "type": "Point", "coordinates": [ -73.803412956299994, 40.586164638299998 ] } },
{ "type": "Feature", "properties": { "feature_type": "Misting Station", "property_name": "Rockaway Beach Boardwalk", "borough": "Queens", "longitude": -73.802106184500005, "latitude": 40.586256708900002 }, "geometry": { "type": "Point", "coordinates": [ -73.802106184500005, 40.586256708900002 ] } },
{ "type": "Feature", "properties": { "feature_type": "Misting Station", "property_name": "Rockaway Beach Boardwalk", "borough": "Queens", "longitude": -73.801011843500007, "latitude": 40.586268930199999 }, "geometry": { "type": "Point", "coordinates": [ -73.801011843500007, 40.586268930199999 ] } },
{ "type": "Feature", "properties": { "feature_type": "Misting Station", "property_name": "Rockaway Beach Boardwalk", "borough": "Queens", "longitude": -73.774691870300003, "latitude": 40.5915582513 }, "geometry": { "type": "Point", "coordinates": [ -73.774691870300003, 40.5915582513 ] } },
{ "type": "Feature", "properties": { "feature_type": "Misting Station", "property_name": "Beach 17 Playground", "borough": "Queens", "longitude": -73.750097094500006, "latitude": 40.594261817300001 }, "geometry": { "type": "Point", "coordinates": [ -73.750097094500006, 40.594261817300001 ] } },
{ "type": "Feature", "properties": { "feature_type": "Hydrant Spray Cap", "property_name": "Randall's Island Park", "borough": "Manhattan", "longitude": -73.926067907999993, "latitude": 40.783710126899997 }, "geometry": { "type": "Point", "coordinates": [ -73.926067908, 40.783710126899997 ] } },
{ "type": "Feature", "properties": { "feature_type": "Drinking Fountain Spray Adapter", "property_name": "Flushing Meadows Corona Park", "borough": "Queens", "longitude": -73.842299922300001, "latitude": 40.743601231200003 }, "geometry": { "type": "Point", "coordinates": [ -73.842299922300001, 40.743601231200003 ] } },
{ "type": "Feature", "properties": { "feature_type": "Hydrant Spray Cap", "property_name": "Flushing Meadows Corona Park", "borough": "Queens", "longitude": -73.841879072400005, "latitude": 40.743066251099997 }, "geometry": { "type": "Point", "coordinates": [ -73.841879072400005, 40.743066251099997 ] } },
{ "type": "Feature", "properties": { "feature_type": "Drinking Fountain Spray Adapter", "property_name": "Flushing Meadows Corona Park", "borough": "Queens", "longitude": -73.840004232400005, "latitude": 40.744561440299996 }, "geometry": { "type": "Point", "coordinates": [ -73.840004232400005, 40.744561440299996 ] } },
{ "type": "Feature", "properties": { "feature_type": "Drinking Fountain Spray Adapter", "property_name": "Flushing Meadows Corona Park", "borough": "Queens", "longitude": -73.836680954000002, "latitude": 40.750350439000002 }, "geometry": { "type": "Point", "coordinates": [ -73.836680954, 40.750350439 ] } },
{ "type": "Feature", "properties": { "feature_type": "Drinking Fountain Spray Adapter", "property_name": "Flushing Meadows Corona Park", "borough": "Queens", "longitude": -73.844260191100005, "latitude": 40.745567860800001 }, "geometry": { "type": "Point", "coordinates": [ -73.844260191100005, 40.745567860800001 ] } },
{ "type": "Feature", "properties": { "feature_type": "Hydrant Spray Cap", "property_name": "Randall's Island Park", "borough": "Manhattan", "longitude": -73.916724539800001, "latitude": 40.791884072599998 }, "geometry": { "type": "Point", "coordinates": [ -73.916724539800001, 40.791884072599998 ] } },
{ "type": "Feature", "properties": { "feature_type": "Drinking Fountain Spray Adapter", "property_name": "Flushing Meadows Corona Park", "borough": "Queens", "longitude": -73.849555170399995, "latitude": 40.741899421900001 }, "geometry": { "type": "Point", "coordinates": [ -73.849555170399995, 40.741899421900001 ] } },
{ "type": "Feature", "properties": { "feature_type": "Drinking Fountain Spray Adapter", "property_name": "Flushing Meadows Corona Park", "borough": "Queens", "longitude": -73.850498748999996, "latitude": 40.746141300600002 }, "geometry": { "type": "Point", "coordinates": [ -73.850498749, 40.746141300600002 ] } },
{ "type": "Feature", "properties": { "feature_type": "Hydrant Spray Cap", "property_name": "Randall's Island Park", "borough": "Manhattan", "longitude": -73.914905163, "latitude": 40.792779518099998 }, "geometry": { "type": "Point", "coordinates": [ -73.914905163, 40.792779518099998 ] } },
{ "type": "Feature", "properties": { "feature_type": "Hydrant Spray Cap", "property_name": "Flushing Meadows Corona Park", "borough": "Queens", "longitude": -73.851992479100005, "latitude": 40.746228240400001 }, "geometry": { "type": "Point", "coordinates": [ -73.851992479100005, 40.746228240400001 ] } },
{ "type": "Feature", "properties": { "feature_type": "Hydrant Spray Cap", "property_name": "Randall's Island Park", "borough": "Manhattan", "longitude": -73.915287103200001, "latitude": 40.7933617606 }, "geometry": { "type": "Point", "coordinates": [ -73.915287103200001, 40.7933617606 ] } },
{ "type": "Feature", "properties": { "feature_type": "Hydrant Spray Cap", "property_name": "Randall's Island Park", "borough": "Manhattan", "longitude": -73.919872163700006, "latitude": 40.7942120608 }, "geometry": { "type": "Point", "coordinates": [ -73.919872163700006, 40.7942120608 ] } },
{ "type": "Feature", "properties": { "feature_type": "CS Spray Adapter", "property_name": "Claremont Park", "borough": "Bronx", "longitude": -73.906906432100001, "latitude": 40.841512187299998 }, "geometry": { "type": "Point", "coordinates": [ -73.906906432100001, 40.841512187299998 ] } },
{ "type": "Feature", "properties": { "feature_type": "CS Spray Adapter", "property_name": "Claremont Park", "borough": "Bronx", "longitude": -73.908056443500001, "latitude": 40.837686128199998 }, "geometry": { "type": "Point", "coordinates": [ -73.908056443500001, 40.837686128199998 ] } },
{ "type": "Feature", "properties": { "feature_type": "Misting Station", "property_name": "John Hancock Playground", "borough": "Brooklyn", "longitude": -73.955116401699996, "latitude": 40.682216783199998 }, "geometry": { "type": "Point", "coordinates": [ -73.955116401699996, 40.682216783199998 ] } },
{ "type": "Feature", "properties": { "feature_type": "Misting Station", "property_name": "Fulton Park", "borough": "Brooklyn", "longitude": -73.933835192299995, "latitude": 40.679645013200002 }, "geometry": { "type": "Point", "coordinates": [ -73.933835192299995, 40.679645013200002 ] } },
{ "type": "Feature", "properties": { "feature_type": "Misting Station", "property_name": "Jackie Robinson Park Playground", "borough": "Brooklyn", "longitude": -73.927343475399994, "latitude": 40.680342704300003 }, "geometry": { "type": "Point", "coordinates": [ -73.927343475399994, 40.680342704300003 ] } },
{ "type": "Feature", "properties": { "feature_type": "Misting Station", "property_name": "Thomas Boyland Park", "borough": "Brooklyn", "longitude": -73.907380636599996, "latitude": 40.682089763900002 }, "geometry": { "type": "Point", "coordinates": [ -73.907380636599996, 40.682089763900002 ] } },
{ "type": "Feature", "properties": { "feature_type": "Misting Station", "property_name": "Murray Playground", "borough": "Queens", "longitude": -73.948736608999994, "latitude": 40.747391892700001 }, "geometry": { "type": "Point", "coordinates": [ -73.948736609, 40.747391892700001 ] } },
{ "type": "Feature", "properties": { "feature_type": "Misting Station", "property_name": "Murray Playground", "borough": "Queens", "longitude": -73.948846580199998, "latitude": 40.747056607300003 }, "geometry": { "type": "Point", "coordinates": [ -73.948846580199998, 40.747056607300003 ] } },
{ "type": "Feature", "properties": { "feature_type": "Misting Station", "property_name": "Murray Playground", "borough": "Queens", "longitude": -73.947813930099997, "latitude": 40.7472740352 }, "geometry": { "type": "Point", "coordinates": [ -73.947813930099997, 40.7472740352 ] } },
{ "type": "Feature", "properties": { "feature_type": "Misting Station", "property_name": "Murray Playground", "borough": "Queens", "longitude": -73.947948040200004, "latitude": 40.746831051100003 }, "geometry": { "type": "Point", "coordinates": [ -73.947948040200004, 40.746831051100003 ] } },
{ "type": "Feature", "properties": { "feature_type": "Misting Station", "property_name": "Queensbridge Park", "borough": "Queens", "longitude": -73.9478986867, "latitude": 40.757144477499999 }, "geometry": { "type": "Point", "coordinates": [ -73.9478986867, 40.757144477499999 ] } },
{ "type": "Feature", "properties": { "feature_type": "Misting Station", "property_name": "Newtown Playground", "borough": "Queens", "longitude": -73.869602874400002, "latitude": 40.736366746000002 }, "geometry": { "type": "Point", "coordinates": [ -73.869602874400002, 40.736366746 ] } },
{ "type": "Feature", "properties": { "feature_type": "Misting Station", "property_name": "Maurice A FitzGerald Playground", "borough": "Queens", "longitude": -73.839240413, "latitude": 40.690411556299999 }, "geometry": { "type": "Point", "coordinates": [ -73.839240413, 40.690411556299999 ] } },
{ "type": "Feature", "properties": { "feature_type": "Misting Station", "property_name": "Detective Keith L Williams Park", "borough": "Queens", "longitude": -73.785215636999993, "latitude": 40.704128885499998 }, "geometry": { "type": "Point", "coordinates": [ -73.785215637, 40.704128885499998 ] } },
{ "type": "Feature", "properties": { "feature_type": "Misting Station", "property_name": "Mapes Pool", "borough": "Bronx", "longitude": -73.886683487300004, "latitude": 40.846868178400001 }, "geometry": { "type": "Point", "coordinates": [ -73.886683487300004, 40.846868178400001 ] } },
{ "type": "Feature", "properties": { "feature_type": "Misting Station", "property_name": "Monsignor Raul Del Valle Square", "borough": "Bronx", "longitude": -73.890630599900007, "latitude": 40.820720683399998 }, "geometry": { "type": "Point", "coordinates": [ -73.890630599900007, 40.820720683399998 ] } },
{ "type": "Feature", "properties": { "feature_type": "Buckner Box Spray Adapter", "property_name": "Pulaski Park", "borough": "Bronx", "longitude": -73.925226763200001, "latitude": 40.805514384699997 }, "geometry": { "type": "Point", "coordinates": [ -73.925226763200001, 40.805514384699997 ] } },
{ "type": "Feature", "properties": { "feature_type": "RPZ Spray Adapter", "property_name": "Pulaski Park", "borough": "Bronx", "longitude": -73.924045598399999, "latitude": 40.805164834899998 }, "geometry": { "type": "Point", "coordinates": [ -73.924045598399999, 40.805164834899998 ] } },
{ "type": "Feature", "properties": { "feature_type": "Buckner Box Spray Adapter", "property_name": "People's Park", "borough": "Bronx", "longitude": -73.917022105200004, "latitude": 40.809346404800003 }, "geometry": { "type": "Point", "coordinates": [ -73.917022105200004, 40.809346404800003 ] } },
{ "type": "Feature", "properties": { "feature_type": "CS Spray Adapter", "property_name": "Clark Playground", "borough": "Bronx", "longitude": -73.921166384399996, "latitude": 40.813978842799997 }, "geometry": { "type": "Point", "coordinates": [ -73.921166384399996, 40.813978842799997 ] } },
{ "type": "Feature", "properties": { "feature_type": "Buckner Box Spray Adapter", "property_name": "Bathgate Playground", "borough": "Bronx", "longitude": -73.894482011500003, "latitude": 40.852089018699999 }, "geometry": { "type": "Point", "coordinates": [ -73.894482011500003, 40.852089018699999 ] } },
{ "type": "Feature", "properties": { "feature_type": "Hydrant Spray Cap", "property_name": "Randall's Island Park", "borough": "Manhattan", "longitude": -73.918377141099995, "latitude": 40.793348770900003 }, "geometry": { "type": "Point", "coordinates": [ -73.918377141099995, 40.793348770900003 ] } },
{ "type": "Feature", "properties": { "feature_type": "Hydrant Spray Cap", "property_name": "Randall's Island Park", "borough": "Manhattan", "longitude": -73.923575424700005, "latitude": 40.801250714399998 }, "geometry": { "type": "Point", "coordinates": [ -73.923575424700005, 40.801250714399998 ] } },
{ "type": "Feature", "properties": { "feature_type": "Drinking Fountain Spray Adapter", "property_name": "Eae J Mitchell Park", "borough": "Bronx", "longitude": -73.884177547099995, "latitude": 40.836485602499998 }, "geometry": { "type": "Point", "coordinates": [ -73.884177547099995, 40.836485602499998 ] } },
{ "type": "Feature", "properties": { "feature_type": "Drinking Fountain Spray Adapter", "property_name": "Aqueduct Walk", "borough": "Bronx", "longitude": -73.914195458899997, "latitude": 40.851152985500001 }, "geometry": { "type": "Point", "coordinates": [ -73.914195458899997, 40.851152985500001 ] } },
{ "type": "Feature", "properties": { "feature_type": "Buckner Box Spray Adapter", "property_name": "Bill Rainey Park", "borough": "Bronx", "longitude": -73.897061785000005, "latitude": 40.819628537200003 }, "geometry": { "type": "Point", "coordinates": [ -73.897061785, 40.819628537200003 ] } },
{ "type": "Feature", "properties": { "feature_type": "Buckner Box Spray Adapter", "property_name": "Tiffany Playground", "borough": "Bronx", "longitude": -73.894210432500003, "latitude": 40.824806271 }, "geometry": { "type": "Point", "coordinates": [ -73.894210432500003, 40.824806271 ] } },
{ "type": "Feature", "properties": { "feature_type": "CS Spray Adapter", "property_name": "Magenta Playground", "borough": "Bronx", "longitude": -73.8677542999, "latitude": 40.8737243697 }, "geometry": { "type": "Point", "coordinates": [ -73.8677542999, 40.8737243697 ] } },
{ "type": "Feature", "properties": { "feature_type": "Buckner Box Spray Adapter", "property_name": "Rev J Polite Playground", "borough": "Bronx", "longitude": -73.897904241199996, "latitude": 40.826792384699999 }, "geometry": { "type": "Point", "coordinates": [ -73.897904241199996, 40.826792384699999 ] } },
{ "type": "Feature", "properties": { "feature_type": "Buckner Box Spray Adapter", "property_name": "Watson Gleason Playground", "borough": "Bronx", "longitude": -73.868772875800005, "latitude": 40.827691573300001 }, "geometry": { "type": "Point", "coordinates": [ -73.868772875800005, 40.827691573300001 ] } },
{ "type": "Feature", "properties": { "feature_type": "Ground Hydrant Spray Adapter", "property_name": "Lyons Square Park", "borough": "Bronx", "longitude": -73.888162222199995, "latitude": 40.8223599636 }, "geometry": { "type": "Point", "coordinates": [ -73.888162222199995, 40.8223599636 ] } },
{ "type": "Feature", "properties": { "feature_type": "Buckner Box Spray Adapter", "property_name": "Vidalia Park", "borough": "Bronx", "longitude": -73.881433152300005, "latitude": 40.844194060100001 }, "geometry": { "type": "Point", "coordinates": [ -73.881433152300005, 40.844194060100001 ] } },
{ "type": "Feature", "properties": { "feature_type": "Buckner Box Spray Adapter", "property_name": "Vidalia Park", "borough": "Bronx", "longitude": -73.881657921699997, "latitude": 40.843789016700001 }, "geometry": { "type": "Point", "coordinates": [ -73.881657921699997, 40.843789016700001 ] } },
{ "type": "Feature", "properties": { "feature_type": "Misting Station", "property_name": "Howard Bennett Playground", "borough": "Manhattan", "longitude": -73.938616683000006, "latitude": 40.813524772900003 }, "geometry": { "type": "Point", "coordinates": [ -73.938616683, 40.813524772900003 ] } },
{ "type": "Feature", "properties": { "feature_type": "Buckner Box Spray Adapter", "property_name": "Rev Lena Irons Unity Park", "borough": "Bronx", "longitude": -73.906511150900002, "latitude": 40.831166225399997 }, "geometry": { "type": "Point", "coordinates": [ -73.906511150900002, 40.831166225399997 ] } },
{ "type": "Feature", "properties": { "feature_type": "Drinking Fountain Spray Adapter", "property_name": "Benjamin Gladstone Square", "borough": "Bronx", "longitude": -73.890931229499998, "latitude": 40.825381205 }, "geometry": { "type": "Point", "coordinates": [ -73.890931229499998, 40.825381205 ] } },
{ "type": "Feature", "properties": { "feature_type": "Misting Station", "property_name": "Sheltering Arms Playground", "borough": "Manhattan", "longitude": -73.955321585299998, "latitude": 40.814968492799999 }, "geometry": { "type": "Point", "coordinates": [ -73.955321585299998, 40.814968492799999 ] } },
{ "type": "Feature", "properties": { "feature_type": "Misting Station", "property_name": "Lt. Wm. Tighe Triangle", "borough": "Manhattan", "longitude": -73.928135187600006, "latitude": 40.865868193499999 }, "geometry": { "type": "Point", "coordinates": [ -73.928135187600006, 40.865868193499999 ] } },
{ "type": "Feature", "properties": { "feature_type": "Misting Station", "property_name": "Highbridge Park", "borough": "Manhattan", "longitude": -73.933127103299995, "latitude": 40.844250824699998 }, "geometry": { "type": "Point", "coordinates": [ -73.933127103299995, 40.844250824699998 ] } },
{ "type": "Feature", "properties": { "feature_type": "Buckner Box Spray Adapter", "property_name": "Washington Park", "borough": "Bronx", "longitude": -73.8932021902, "latitude": 40.855974970200002 }, "geometry": { "type": "Point", "coordinates": [ -73.8932021902, 40.855974970200002 ] } },
{ "type": "Feature", "properties": { "feature_type": "Misting Station", "property_name": "Railroad Park", "borough": "Bronx", "longitude": -73.915294511200003, "latitude": 40.824989285400001 }, "geometry": { "type": "Point", "coordinates": [ -73.915294511200003, 40.824989285400001 ] } },
{ "type": "Feature", "properties": { "feature_type": "Misting Station", "property_name": "Railroad Park", "borough": "Bronx", "longitude": -73.915578436000004, "latitude": 40.825118198699997 }, "geometry": { "type": "Point", "coordinates": [ -73.915578436, 40.825118198699997 ] } },
{ "type": "Feature", "properties": { "feature_type": "Buckner Box Spray Adapter", "property_name": "Rose Hill Park", "borough": "Bronx", "longitude": -73.890435958300003, "latitude": 40.862089116999996 }, "geometry": { "type": "Point", "coordinates": [ -73.890435958300003, 40.862089117 ] } },
{ "type": "Feature", "properties": { "feature_type": "Other", "property_name": "Fox Playground", "borough": "Bronx", "longitude": -73.898374035700002, "latitude": 40.815163361899998 }, "geometry": { "type": "Point", "coordinates": [ -73.898374035700002, 40.815163361899998 ] } },
{ "type": "Feature", "properties": { "feature_type": "Buckner Box Spray Adapter", "property_name": "Lozada Playground", "borough": "Bronx", "longitude": -73.925179517399997, "latitude": 40.807739642599998 }, "geometry": { "type": "Point", "coordinates": [ -73.925179517399997, 40.807739642599998 ] } },
{ "type": "Feature", "properties": { "feature_type": "Misting Station", "property_name": "D'Auria-Murphy Triangle", "borough": "Bronx", "longitude": -73.889063876500003, "latitude": 40.853300321200003 }, "geometry": { "type": "Point", "coordinates": [ -73.889063876500003, 40.853300321200003 ] } },
{ "type": "Feature", "properties": { "feature_type": "Misting Station", "property_name": "Fred Samuel Playground", "borough": "Manhattan", "longitude": -73.939438804700004, "latitude": 40.816942708699997 }, "geometry": { "type": "Point", "coordinates": [ -73.939438804700004, 40.816942708699997 ] } },
{ "type": "Feature", "properties": { "feature_type": "Misting Station", "property_name": "William McCray Playground", "borough": "Manhattan", "longitude": -73.937634445900002, "latitude": 40.815518704 }, "geometry": { "type": "Point", "coordinates": [ -73.937634445900002, 40.815518704 ] } },
{ "type": "Feature", "properties": { "feature_type": "Drinking Fountain Spray Adapter", "property_name": "Marconi Park", "borough": "Queens", "longitude": -73.795471949800003, "latitude": 40.694026518900003 }, "geometry": { "type": "Point", "coordinates": [ -73.795471949800003, 40.694026518900003 ] } },
{ "type": "Feature", "properties": { "feature_type": "Misting Station", "property_name": "Captain Rivera Playground", "borough": "Bronx", "longitude": -73.906925337000004, "latitude": 40.818102005 }, "geometry": { "type": "Point", "coordinates": [ -73.906925337, 40.818102005 ] } },
{ "type": "Feature", "properties": { "feature_type": "Misting Station", "property_name": "Macombs Dam Park", "borough": "Bronx", "longitude": -73.929659526500004, "latitude": 40.828325726000003 }, "geometry": { "type": "Point", "coordinates": [ -73.929659526500004, 40.828325726 ] } },
{ "type": "Feature", "properties": { "feature_type": "Misting Station", "property_name": "Behagen Playground", "borough": "Bronx", "longitude": -73.900997628300004, "latitude": 40.825497268299998 }, "geometry": { "type": "Point", "coordinates": [ -73.900997628300004, 40.825497268299998 ] } },
{ "type": "Feature", "properties": { "feature_type": "Misting Station", "property_name": "Nelson Playground", "borough": "Bronx", "longitude": -73.926982408800001, "latitude": 40.834907917400002 }, "geometry": { "type": "Point", "coordinates": [ -73.926982408800001, 40.834907917400002 ] } },
{ "type": "Feature", "properties": { "feature_type": "Misting Station", "property_name": "Beanstalk Playground", "borough": "Bronx", "longitude": -73.916695428699995, "latitude": 40.854015243200003 }, "geometry": { "type": "Point", "coordinates": [ -73.916695428699995, 40.854015243200003 ] } },
{ "type": "Feature", "properties": { "feature_type": "Misting Station", "property_name": "Gouverneur Playground", "borough": "Bronx", "longitude": -73.903284932700004, "latitude": 40.835774255799997 }, "geometry": { "type": "Point", "coordinates": [ -73.903284932700004, 40.835774255799997 ] } },
{ "type": "Feature", "properties": { "feature_type": "Misting Station", "property_name": "Noble Playground", "borough": "Bronx", "longitude": -73.872541896900003, "latitude": 40.836889146899999 }, "geometry": { "type": "Point", "coordinates": [ -73.872541896900003, 40.836889146899999 ] } },
{ "type": "Feature", "properties": { "feature_type": "RPZ Spray Adapter", "property_name": "Andrews Grove", "borough": "Queens", "longitude": -73.954998840100004, "latitude": 40.743424501600003 }, "geometry": { "type": "Point", "coordinates": [ -73.954998840100004, 40.743424501600003 ] } },
{ "type": "Feature", "properties": { "feature_type": "Drinking Fountain Spray Adapter", "property_name": "Playground One Forty", "borough": "Queens", "longitude": -73.800947155499998, "latitude": 40.674770653300001 }, "geometry": { "type": "Point", "coordinates": [ -73.800947155499998, 40.674770653300001 ] } },
{ "type": "Feature", "properties": { "feature_type": "Drinking Fountain Spray Adapter", "property_name": "Springfield Park", "borough": "Queens", "longitude": -73.762647683300003, "latitude": 40.659832634300002 }, "geometry": { "type": "Point", "coordinates": [ -73.762647683300003, 40.659832634300002 ] } },
{ "type": "Feature", "properties": { "feature_type": "Ground Hydrant Spray Adapter", "property_name": "Asser Levy Park", "borough": "Brooklyn", "longitude": -73.972599859300004, "latitude": 40.575451077099999 }, "geometry": { "type": "Point", "coordinates": [ -73.972599859300004, 40.575451077099999 ] } },
{ "type": "Feature", "properties": { "feature_type": "CS Spray Adapter", "property_name": "Nautilus Playground", "borough": "Brooklyn", "longitude": -73.995959258, "latitude": 40.571719067300002 }, "geometry": { "type": "Point", "coordinates": [ -73.995959258, 40.571719067300002 ] } },
{ "type": "Feature", "properties": { "feature_type": "Misting Station", "property_name": "Lafayette Playground", "borough": "Brooklyn", "longitude": -73.985138572500006, "latitude": 40.595029574100003 }, "geometry": { "type": "Point", "coordinates": [ -73.985138572500006, 40.595029574100003 ] } },
{ "type": "Feature", "properties": { "feature_type": "Misting Station", "property_name": "Irving Square Park", "borough": "Brooklyn", "longitude": -73.909748977999996, "latitude": 40.692013556399999 }, "geometry": { "type": "Point", "coordinates": [ -73.909748978, 40.692013556399999 ] } },
{ "type": "Feature", "properties": { "feature_type": "CS Spray Adapter", "property_name": "Carver Playground", "borough": "Brooklyn", "longitude": -73.920389852699998, "latitude": 40.680472736600002 }, "geometry": { "type": "Point", "coordinates": [ -73.920389852699998, 40.680472736600002 ] } },
{ "type": "Feature", "properties": { "feature_type": "Misting Station", "property_name": "Lafayette Playground", "borough": "Brooklyn", "longitude": -73.930039998400005, "latitude": 40.692492519799998 }, "geometry": { "type": "Point", "coordinates": [ -73.930039998400005, 40.692492519799998 ] } },
{ "type": "Feature", "properties": { "feature_type": "Buckner Box Spray Adapter", "property_name": "Detective Keith L Williams Park", "borough": "Queens", "longitude": -73.785022518399998, "latitude": 40.702965800699999 }, "geometry": { "type": "Point", "coordinates": [ -73.785022518399998, 40.702965800699999 ] } },
{ "type": "Feature", "properties": { "feature_type": "Drinking Fountain Spray Adapter", "property_name": "Wayanda Park", "borough": "Queens", "longitude": -73.738668304000001, "latitude": 40.710875307499997 }, "geometry": { "type": "Point", "coordinates": [ -73.738668304, 40.710875307499997 ] } },
{ "type": "Feature", "properties": { "feature_type": "Drinking Fountain Spray Adapter", "property_name": "Pat Williams Playground", "borough": "Queens", "longitude": -73.729607711, "latitude": 40.713157194099999 }, "geometry": { "type": "Point", "coordinates": [ -73.729607711, 40.713157194099999 ] } },
{ "type": "Feature", "properties": { "feature_type": "Drinking Fountain Spray Adapter", "property_name": "Moore Playground", "borough": "Manhattan", "longitude": -73.938799217899998, "latitude": 40.809466990300002 }, "geometry": { "type": "Point", "coordinates": [ -73.938799217899998, 40.809466990300002 ] } },
{ "type": "Feature", "properties": { "feature_type": "Misting Station", "property_name": "Moore Playground", "borough": "Manhattan", "longitude": -73.9385199763, "latitude": 40.809518867999998 }, "geometry": { "type": "Point", "coordinates": [ -73.9385199763, 40.809518868 ] } },
{ "type": "Feature", "properties": { "feature_type": "Drinking Fountain Spray Adapter", "property_name": "Howard Bennett Playground", "borough": "Manhattan", "longitude": -73.938896016399994, "latitude": 40.813944820499998 }, "geometry": { "type": "Point", "coordinates": [ -73.938896016399994, 40.813944820499998 ] } },
{ "type": "Feature", "properties": { "feature_type": "Misting Station", "property_name": "Mitchel Square", "borough": "Manhattan", "longitude": -73.939921190199996, "latitude": 40.840176006900002 }, "geometry": { "type": "Point", "coordinates": [ -73.939921190199996, 40.840176006900002 ] } },
{ "type": "Feature", "properties": { "feature_type": "Misting Station", "property_name": "Robert L. Clinkscales Playground and Community Garden", "borough": "Manhattan", "longitude": -73.939913529600005, "latitude": 40.822751107199998 }, "geometry": { "type": "Point", "coordinates": [ -73.939913529600005, 40.822751107199998 ] } },
{ "type": "Feature", "properties": { "feature_type": "Drinking Fountain Spray Adapter", "property_name": "Detective Keith L Williams Park", "borough": "Queens", "longitude": -73.784051418900006, "latitude": 40.703167177600001 }, "geometry": { "type": "Point", "coordinates": [ -73.784051418900006, 40.703167177600001 ] } },
{ "type": "Feature", "properties": { "feature_type": "Buckner Box Spray Adapter", "property_name": "Courtney Callender Playground", "borough": "Manhattan", "longitude": -73.940280283299998, "latitude": 40.810098004799997 }, "geometry": { "type": "Point", "coordinates": [ -73.940280283299998, 40.810098004799997 ] } },
{ "type": "Feature", "properties": { "feature_type": "Buckner Box Spray Adapter", "property_name": "Courtney Callender Playground", "borough": "Manhattan", "longitude": -73.939786083800001, "latitude": 40.810197137499998 }, "geometry": { "type": "Point", "coordinates": [ -73.939786083800001, 40.810197137499998 ] } },
{ "type": "Feature", "properties": { "feature_type": "Buckner Box Spray Adapter", "property_name": "James Weldon Johnson Playground", "borough": "Manhattan", "longitude": -73.941898561399995, "latitude": 40.797056948300003 }, "geometry": { "type": "Point", "coordinates": [ -73.941898561399995, 40.797056948300003 ] } },
{ "type": "Feature", "properties": { "feature_type": "CS Spray Adapter", "property_name": "Eleanor Roosevelt Playground", "borough": "Brooklyn", "longitude": -73.935795237099995, "latitude": 40.692710831500001 }, "geometry": { "type": "Point", "coordinates": [ -73.935795237099995, 40.692710831500001 ] } },
{ "type": "Feature", "properties": { "feature_type": "Misting Station", "property_name": "Sternberg Park", "borough": "Brooklyn", "longitude": -73.947648867300003, "latitude": 40.706119816200001 }, "geometry": { "type": "Point", "coordinates": [ -73.947648867300003, 40.706119816200001 ] } },
{ "type": "Feature", "properties": { "feature_type": "Misting Station", "property_name": "Lafayette Playground", "borough": "Brooklyn", "longitude": -73.985028392399997, "latitude": 40.594074474400003 }, "geometry": { "type": "Point", "coordinates": [ -73.985028392399997, 40.594074474400003 ] } },
{ "type": "Feature", "properties": { "feature_type": "RPZ Spray Adapter", "property_name": "Lewis Playground", "borough": "Brooklyn", "longitude": -73.937958488800007, "latitude": 40.695310273600001 }, "geometry": { "type": "Point", "coordinates": [ -73.937958488800007, 40.695310273600001 ] } },
{ "type": "Feature", "properties": { "feature_type": "Buckner Box Spray Adapter", "property_name": "Dr. Ronald E. McNair Playground", "borough": "Manhattan", "longitude": -73.938184847700001, "latitude": 40.802572949199998 }, "geometry": { "type": "Point", "coordinates": [ -73.938184847700001, 40.802572949199998 ] } },
{ "type": "Feature", "properties": { "feature_type": "Misting Station", "property_name": "Dr. Ronald E. McNair Playground", "borough": "Manhattan", "longitude": -73.937989301299993, "latitude": 40.802427156100002 }, "geometry": { "type": "Point", "coordinates": [ -73.937989301299993, 40.802427156100002 ] } },
{ "type": "Feature", "properties": { "feature_type": "Misting Station", "property_name": "Haffen Park", "borough": "Bronx", "longitude": -73.839601450800004, "latitude": 40.872746025700003 }, "geometry": { "type": "Point", "coordinates": [ -73.839601450800004, 40.872746025700003 ] } },
{ "type": "Feature", "properties": { "feature_type": "Misting Station", "property_name": "Haffen Park", "borough": "Bronx", "longitude": -73.8399058814, "latitude": 40.872917772000001 }, "geometry": { "type": "Point", "coordinates": [ -73.8399058814, 40.872917772 ] } },
{ "type": "Feature", "properties": { "feature_type": "Other", "property_name": "Poe Park", "borough": "Bronx", "longitude": -73.895146462300005, "latitude": 40.864516474399998 }, "geometry": { "type": "Point", "coordinates": [ -73.895146462300005, 40.864516474399998 ] } },
{ "type": "Feature", "properties": { "feature_type": "Misting Station", "property_name": "Joyce Kilmer Park", "borough": "Bronx", "longitude": -73.922015382699996, "latitude": 40.828737590899998 }, "geometry": { "type": "Point", "coordinates": [ -73.922015382699996, 40.828737590899998 ] } },
{ "type": "Feature", "properties": { "feature_type": "Misting Station", "property_name": "Edenwald Playground", "borough": "Bronx", "longitude": -73.845107879799997, "latitude": 40.884077947599998 }, "geometry": { "type": "Point", "coordinates": [ -73.845107879799997, 40.884077947599998 ] } },
{ "type": "Feature", "properties": { "feature_type": "Misting Station", "property_name": "Abigail Playground", "borough": "Bronx", "longitude": -73.904680223900002, "latitude": 40.8172025346 }, "geometry": { "type": "Point", "coordinates": [ -73.904680223900002, 40.8172025346 ] } },
{ "type": "Feature", "properties": { "feature_type": "Misting Station", "property_name": "Slattery Playground", "borough": "Bronx", "longitude": -73.898661593200003, "latitude": 40.857527009899997 }, "geometry": { "type": "Point", "coordinates": [ -73.898661593200003, 40.857527009899997 ] } },
{ "type": "Feature", "properties": { "feature_type": "Misting Station", "property_name": "Ranaqua Playground", "borough": "Bronx", "longitude": -73.922199225499995, "latitude": 40.8067967462 }, "geometry": { "type": "Point", "coordinates": [ -73.922199225499995, 40.8067967462 ] } },
{ "type": "Feature", "properties": { "feature_type": "Misting Station", "property_name": "Joyce Kilmer Park", "borough": "Bronx", "longitude": -73.923024201499999, "latitude": 40.828434124600001 }, "geometry": { "type": "Point", "coordinates": [ -73.923024201499999, 40.828434124600001 ] } },
{ "type": "Feature", "properties": { "feature_type": "Misting Station", "property_name": "Joyce Kilmer Park", "borough": "Bronx", "longitude": -73.922975867800005, "latitude": 40.827593033200003 }, "geometry": { "type": "Point", "coordinates": [ -73.922975867800005, 40.827593033200003 ] } },
{ "type": "Feature", "properties": { "feature_type": "Misting Station", "property_name": "Bushwick Playground", "borough": "Brooklyn", "longitude": -73.911706735699994, "latitude": 40.695843226100003 }, "geometry": { "type": "Point", "coordinates": [ -73.911706735699994, 40.695843226100003 ] } },
{ "type": "Feature", "properties": { "feature_type": "Misting Station", "property_name": "Ocean Hill Playground", "borough": "Brooklyn", "longitude": -73.911956615799994, "latitude": 40.674583978999998 }, "geometry": { "type": "Point", "coordinates": [ -73.911956615799994, 40.674583979 ] } },
{ "type": "Feature", "properties": { "feature_type": "Misting Station", "property_name": "Mott Playground", "borough": "Bronx", "longitude": -73.915032467000003, "latitude": 40.831136153700001 }, "geometry": { "type": "Point", "coordinates": [ -73.915032467, 40.831136153700001 ] } },
{ "type": "Feature", "properties": { "feature_type": "CS Spray Adapter", "property_name": "Grove Hill Playground", "borough": "Bronx", "longitude": -73.908555367399998, "latitude": 40.819877692399999 }, "geometry": { "type": "Point", "coordinates": [ -73.908555367399998, 40.819877692399999 ] } },
{ "type": "Feature", "properties": { "feature_type": "Misting Station", "property_name": "Givan Square", "borough": "Bronx", "longitude": -73.842769186300004, "latitude": 40.868152805400001 }, "geometry": { "type": "Point", "coordinates": [ -73.842769186300004, 40.868152805400001 ] } },
{ "type": "Feature", "properties": { "feature_type": "Misting Station", "property_name": "St. Nicholas Park", "borough": "Manhattan", "longitude": -73.946709891500007, "latitude": 40.820474809899999 }, "geometry": { "type": "Point", "coordinates": [ -73.946709891500007, 40.820474809899999 ] } },
{ "type": "Feature", "properties": { "feature_type": "Misting Station", "property_name": "Wakefield Playground", "borough": "Bronx", "longitude": -73.854319244600006, "latitude": 40.901732638299997 }, "geometry": { "type": "Point", "coordinates": [ -73.854319244600006, 40.901732638299997 ] } },
{ "type": "Feature", "properties": { "feature_type": "Misting Station", "property_name": "Story Playground", "borough": "Bronx", "longitude": -73.863126402600003, "latitude": 40.822526236000002 }, "geometry": { "type": "Point", "coordinates": [ -73.863126402600003, 40.822526236 ] } },
{ "type": "Feature", "properties": { "feature_type": "Misting Station", "property_name": "Colgate Close", "borough": "Bronx", "longitude": -73.8817957009, "latitude": 40.823982556200001 }, "geometry": { "type": "Point", "coordinates": [ -73.8817957009, 40.823982556200001 ] } },
{ "type": "Feature", "properties": { "feature_type": "Misting Station", "property_name": "Holcombe Rucker Park", "borough": "Manhattan", "longitude": -73.9360087636, "latitude": 40.8290110091 }, "geometry": { "type": "Point", "coordinates": [ -73.9360087636, 40.8290110091 ] } },
{ "type": "Feature", "properties": { "feature_type": "Buckner Box Spray Adapter", "property_name": "Holcombe Rucker Park", "borough": "Manhattan", "longitude": -73.936265305999996, "latitude": 40.829385734299997 }, "geometry": { "type": "Point", "coordinates": [ -73.936265306, 40.829385734299997 ] } },
{ "type": "Feature", "properties": { "feature_type": "Misting Station", "property_name": "Carmansville Playground", "borough": "Manhattan", "longitude": -73.944366829299994, "latitude": 40.829164263700001 }, "geometry": { "type": "Point", "coordinates": [ -73.944366829299994, 40.829164263700001 ] } },
{ "type": "Feature", "properties": { "feature_type": "Misting Station", "property_name": "Springfield Park", "borough": "Queens", "longitude": -73.762876376999998, "latitude": 40.661053422999998 }, "geometry": { "type": "Point", "coordinates": [ -73.762876377, 40.661053423 ] } },
{ "type": "Feature", "properties": { "feature_type": "Misting Station", "property_name": "Springfield Park", "borough": "Queens", "longitude": -73.762916610100007, "latitude": 40.6609394818 }, "geometry": { "type": "Point", "coordinates": [ -73.762916610100007, 40.6609394818 ] } },
{ "type": "Feature", "properties": { "feature_type": "Drinking Fountain Spray Adapter", "property_name": "Delphin H. Greene Playground", "borough": "Queens", "longitude": -73.728726312899994, "latitude": 40.684740938099999 }, "geometry": { "type": "Point", "coordinates": [ -73.728726312899994, 40.684740938099999 ] } },
{ "type": "Feature", "properties": { "feature_type": "CS Spray Adapter", "property_name": "Delphin H. Greene Playground", "borough": "Queens", "longitude": -73.728678033099996, "latitude": 40.684614833700003 }, "geometry": { "type": "Point", "coordinates": [ -73.728678033099996, 40.684614833700003 ] } },
{ "type": "Feature", "properties": { "feature_type": "Buckner Box Spray Adapter", "property_name": "St. Nicholas Playground South", "borough": "Manhattan", "longitude": -73.947481411799998, "latitude": 40.810793716 }, "geometry": { "type": "Point", "coordinates": [ -73.947481411799998, 40.810793716 ] } },
{ "type": "Feature", "properties": { "feature_type": "Buckner Box Spray Adapter", "property_name": "Martin Luther King Jr. Playground", "borough": "Manhattan", "longitude": -73.950668480499999, "latitude": 40.7998981593 }, "geometry": { "type": "Point", "coordinates": [ -73.950668480499999, 40.7998981593 ] } },
{ "type": "Feature", "properties": { "feature_type": "Misting Station", "property_name": "Cherry Tree Park", "borough": "Manhattan", "longitude": -73.946869836900007, "latitude": 40.787400380299999 }, "geometry": { "type": "Point", "coordinates": [ -73.946869836900007, 40.787400380299999 ] } },
{ "type": "Feature", "properties": { "feature_type": "Misting Station", "property_name": "Frost Playground", "borough": "Brooklyn", "longitude": -73.939164566000002, "latitude": 40.718791350700002 }, "geometry": { "type": "Point", "coordinates": [ -73.939164566, 40.718791350700002 ] } },
{ "type": "Feature", "properties": { "feature_type": "Drinking Fountain Spray Adapter", "property_name": "Marcy Playground", "borough": "Brooklyn", "longitude": -73.949731805499994, "latitude": 40.695645272500002 }, "geometry": { "type": "Point", "coordinates": [ -73.949731805499994, 40.695645272500002 ] } },
{ "type": "Feature", "properties": { "feature_type": "Misting Station", "property_name": "Lafayette Gardens Playground", "borough": "Brooklyn", "longitude": -73.957449292199996, "latitude": 40.690057413600002 }, "geometry": { "type": "Point", "coordinates": [ -73.957449292199996, 40.690057413600002 ] } },
{ "type": "Feature", "properties": { "feature_type": "Misting Station", "property_name": "Renaissance Playground", "borough": "Manhattan", "longitude": -73.941795444299999, "latitude": 40.821440300900001 }, "geometry": { "type": "Point", "coordinates": [ -73.941795444299999, 40.821440300900001 ] } },
{ "type": "Feature", "properties": { "feature_type": "Drinking Fountain Spray Adapter", "property_name": "Flushing Meadows Corona Park", "borough": "Queens", "longitude": -73.841984383300002, "latitude": 40.740339454199997 }, "geometry": { "type": "Point", "coordinates": [ -73.841984383300002, 40.740339454199997 ] } },
{ "type": "Feature", "properties": { "feature_type": "CS Spray Adapter", "property_name": "Flushing Meadows Corona Park", "borough": "Queens", "longitude": -73.833854939000005, "latitude": 40.750957624000002 }, "geometry": { "type": "Point", "coordinates": [ -73.833854939, 40.750957624 ] } },
{ "type": "Feature", "properties": { "feature_type": "Misting Station", "property_name": "Jennie Jerome Playground", "borough": "Bronx", "longitude": -73.9136704079, "latitude": 40.845522130100001 }, "geometry": { "type": "Point", "coordinates": [ -73.9136704079, 40.845522130100001 ] } },
{ "type": "Feature", "properties": { "feature_type": "Other", "property_name": "Quarry Ballfields", "borough": "Bronx", "longitude": -73.889914874, "latitude": 40.850175360800002 }, "geometry": { "type": "Point", "coordinates": [ -73.889914874, 40.850175360800002 ] } },
{ "type": "Feature", "properties": { "feature_type": "RPZ Spray Adapter", "property_name": "Beatty Plaza", "borough": "Bronx", "longitude": -73.901846207800006, "latitude": 40.831577221899998 }, "geometry": { "type": "Point", "coordinates": [ -73.901846207800006, 40.831577221899998 ] } },
{ "type": "Feature", "properties": { "feature_type": "RPZ Spray Adapter", "property_name": "Bryan Park", "borough": "Bronx", "longitude": -73.894236752300003, "latitude": 40.862160369599998 }, "geometry": { "type": "Point", "coordinates": [ -73.894236752300003, 40.862160369599998 ] } },
{ "type": "Feature", "properties": { "feature_type": "Misting Station", "property_name": "The Pearly Gates", "borough": "Bronx", "longitude": -73.845381436799997, "latitude": 40.838947039799997 }, "geometry": { "type": "Point", "coordinates": [ -73.845381436799997, 40.838947039799997 ] } },
{ "type": "Feature", "properties": { "feature_type": "RPZ Spray Adapter", "property_name": "Devoe Park", "borough": "Bronx", "longitude": -73.907971140399994, "latitude": 40.862995660700001 }, "geometry": { "type": "Point", "coordinates": [ -73.907971140399994, 40.862995660700001 ] } },
{ "type": "Feature", "properties": { "feature_type": "CS Spray Adapter", "property_name": "Webster Playground", "borough": "Bronx", "longitude": -73.892951505400006, "latitude": 40.859490068900001 }, "geometry": { "type": "Point", "coordinates": [ -73.892951505400006, 40.859490068900001 ] } },
{ "type": "Feature", "properties": { "feature_type": "Misting Station", "property_name": "Franz Sigel Park", "borough": "Bronx", "longitude": -73.926358809800007, "latitude": 40.821299196299996 }, "geometry": { "type": "Point", "coordinates": [ -73.926358809800007, 40.821299196299996 ] } },
{ "type": "Feature", "properties": { "feature_type": "Drinking Fountain Spray Adapter", "property_name": "Behagen Playground", "borough": "Bronx", "longitude": -73.901449694199997, "latitude": 40.825539108900003 }, "geometry": { "type": "Point", "coordinates": [ -73.901449694199997, 40.825539108900003 ] } },
{ "type": "Feature", "properties": { "feature_type": "Misting Station", "property_name": "Paerdegat Park", "borough": "Brooklyn", "longitude": -73.938337865899996, "latitude": 40.638490831699997 }, "geometry": { "type": "Point", "coordinates": [ -73.938337865899996, 40.638490831699997 ] } },
{ "type": "Feature", "properties": { "feature_type": "Misting Station", "property_name": "Maria Hernandez Park", "borough": "Brooklyn", "longitude": -73.924058094000003, "latitude": 40.7030396018 }, "geometry": { "type": "Point", "coordinates": [ -73.924058094, 40.7030396018 ] } },
{ "type": "Feature", "properties": { "feature_type": "Misting Station", "property_name": "Bushwick Playground", "borough": "Brooklyn", "longitude": -73.939485213899999, "latitude": 40.701667967900001 }, "geometry": { "type": "Point", "coordinates": [ -73.939485213899999, 40.701667967900001 ] } },
{ "type": "Feature", "properties": { "feature_type": "CS Spray Adapter", "property_name": "Raymond Bush Playground", "borough": "Brooklyn", "longitude": -73.939420763699999, "latitude": 40.686563019300003 }, "geometry": { "type": "Point", "coordinates": [ -73.939420763699999, 40.686563019300003 ] } },
{ "type": "Feature", "properties": { "feature_type": "CS Spray Adapter", "property_name": "Beach 9 Playground", "borough": "Queens", "longitude": -73.744616178900003, "latitude": 40.595636161199998 }, "geometry": { "type": "Point", "coordinates": [ -73.744616178900003, 40.595636161199998 ] } },
{ "type": "Feature", "properties": { "feature_type": "Other", "property_name": "Rockaway Beach Boardwalk", "borough": "Queens", "longitude": -73.789236791700006, "latitude": 40.588743542899998 }, "geometry": { "type": "Point", "coordinates": [ -73.789236791700006, 40.588743542899998 ] } },
{ "type": "Feature", "properties": { "feature_type": "Misting Station", "property_name": "Broad Channel Park", "borough": "Queens", "longitude": -73.819739165399994, "latitude": 40.601287652400003 }, "geometry": { "type": "Point", "coordinates": [ -73.819739165399994, 40.601287652400003 ] } },
{ "type": "Feature", "properties": { "feature_type": "Drinking Fountain Spray Adapter", "property_name": "Osborn Playground", "borough": "Brooklyn", "longitude": -73.906245524300004, "latitude": 40.656130416400003 }, "geometry": { "type": "Point", "coordinates": [ -73.906245524300004, 40.656130416400003 ] } },
{ "type": "Feature", "properties": { "feature_type": "Misting Station", "property_name": "Sternberg Park", "borough": "Brooklyn", "longitude": -73.946777655399998, "latitude": 40.706211998199997 }, "geometry": { "type": "Point", "coordinates": [ -73.946777655399998, 40.706211998199997 ] } },
{ "type": "Feature", "properties": { "feature_type": "Misting Station", "property_name": "Cooper Park", "borough": "Brooklyn", "longitude": -73.936357737799995, "latitude": 40.7158102231 }, "geometry": { "type": "Point", "coordinates": [ -73.936357737799995, 40.7158102231 ] } },
{ "type": "Feature", "properties": { "feature_type": "Drinking Fountain Spray Adapter", "property_name": "Middleton Playground", "borough": "Brooklyn", "longitude": -73.955175401199995, "latitude": 40.700622614799997 }, "geometry": { "type": "Point", "coordinates": [ -73.955175401199995, 40.700622614799997 ] } },
{ "type": "Feature", "properties": { "feature_type": "Drinking Fountain Spray Adapter", "property_name": "Bartlett Playground", "borough": "Brooklyn", "longitude": -73.945944223599994, "latitude": 40.700833396500002 }, "geometry": { "type": "Point", "coordinates": [ -73.945944223599994, 40.700833396500002 ] } },
{ "type": "Feature", "properties": { "feature_type": "Ground Hydrant Spray Adapter", "property_name": "Seth Low Playground/ Bealin Square", "borough": "Brooklyn", "longitude": -73.986032990599995, "latitude": 40.608839124399999 }, "geometry": { "type": "Point", "coordinates": [ -73.986032990599995, 40.608839124399999 ] } },
{ "type": "Feature", "properties": { "feature_type": "Misting Station", "property_name": "Jesse Owens Playground", "borough": "Brooklyn", "longitude": -73.932429604500001, "latitude": 40.691542079900003 }, "geometry": { "type": "Point", "coordinates": [ -73.932429604500001, 40.691542079900003 ] } },
{ "type": "Feature", "properties": { "feature_type": "CS Spray Adapter", "property_name": "Brevoort Playground", "borough": "Brooklyn", "longitude": -73.922752380099993, "latitude": 40.680678325199999 }, "geometry": { "type": "Point", "coordinates": [ -73.922752380099993, 40.680678325199999 ] } },
{ "type": "Feature", "properties": { "feature_type": "Drinking Fountain Spray Adapter", "property_name": "Hot Spot Tot Lot", "borough": "Brooklyn", "longitude": -73.956575965100001, "latitude": 40.6311490155 }, "geometry": { "type": "Point", "coordinates": [ -73.956575965100001, 40.6311490155 ] } },
{ "type": "Feature", "properties": { "feature_type": "Misting Station", "property_name": "De Hostos Playground", "borough": "Brooklyn", "longitude": -73.949249910899994, "latitude": 40.7023841416 }, "geometry": { "type": "Point", "coordinates": [ -73.949249910899994, 40.7023841416 ] } },
{ "type": "Feature", "properties": { "feature_type": "Misting Station", "property_name": "Rodney Park North", "borough": "Brooklyn", "longitude": -73.956251347399999, "latitude": 40.709001154900001 }, "geometry": { "type": "Point", "coordinates": [ -73.956251347399999, 40.709001154900001 ] } },
{ "type": "Feature", "properties": { "feature_type": "Misting Station", "property_name": "Fermi Playground", "borough": "Brooklyn", "longitude": -73.928292412299996, "latitude": 40.700243113299997 }, "geometry": { "type": "Point", "coordinates": [ -73.928292412299996, 40.700243113299997 ] } },
{ "type": "Feature", "properties": { "feature_type": "Misting Station", "property_name": "St. John's Park", "borough": "Brooklyn", "longitude": -73.935319000500002, "latitude": 40.674244163200001 }, "geometry": { "type": "Point", "coordinates": [ -73.935319000500002, 40.674244163200001 ] } },
{ "type": "Feature", "properties": { "feature_type": "Misting Station", "property_name": "Harry Maze Playground", "borough": "Brooklyn", "longitude": -73.923584964499994, "latitude": 40.643933428399997 }, "geometry": { "type": "Point", "coordinates": [ -73.923584964499994, 40.643933428399997 ] } },
{ "type": "Feature", "properties": { "feature_type": "Drinking Fountain Spray Adapter", "property_name": "Railroad Playground", "borough": "Brooklyn", "longitude": -73.914067537199998, "latitude": 40.649212262100001 }, "geometry": { "type": "Point", "coordinates": [ -73.914067537199998, 40.649212262100001 ] } },
{ "type": "Feature", "properties": { "feature_type": "Other", "property_name": "Van Cortlandt Park", "borough": "Bronx", "longitude": -73.896086510100005, "latitude": 40.893738115799998 }, "geometry": { "type": "Point", "coordinates": [ -73.896086510100005, 40.893738115799998 ] } },
{ "type": "Feature", "properties": { "feature_type": "CS Spray Adapter", "property_name": "St. Mary's Park", "borough": "Bronx", "longitude": -73.910451459399994, "latitude": 40.809924631199998 }, "geometry": { "type": "Point", "coordinates": [ -73.910451459399994, 40.809924631199998 ] } },
{ "type": "Feature", "properties": { "feature_type": "Misting Station", "property_name": "Rienzi Playground", "borough": "Bronx", "longitude": -73.858731557799999, "latitude": 40.887624437 }, "geometry": { "type": "Point", "coordinates": [ -73.858731557799999, 40.887624437 ] } },
{ "type": "Feature", "properties": { "feature_type": "Misting Station", "property_name": "Mount Hope Playground", "borough": "Bronx", "longitude": -73.909134634899999, "latitude": 40.850362274799998 }, "geometry": { "type": "Point", "coordinates": [ -73.909134634899999, 40.850362274799998 ] } },
{ "type": "Feature", "properties": { "feature_type": "Misting Station", "property_name": "Jackie Robinson Park", "borough": "Manhattan", "longitude": -73.939783099400003, "latitude": 40.827861951000003 }, "geometry": { "type": "Point", "coordinates": [ -73.939783099400003, 40.827861951 ] } },
{ "type": "Feature", "properties": { "feature_type": "Buckner Box Spray Adapter", "property_name": "Jackie Robinson Park", "borough": "Manhattan", "longitude": -73.941061236600007, "latitude": 40.826255442200001 }, "geometry": { "type": "Point", "coordinates": [ -73.941061236600007, 40.826255442200001 ] } },
{ "type": "Feature", "properties": { "feature_type": "CS Spray Adapter", "property_name": "Annunciation Playground", "borough": "Manhattan", "longitude": -73.952078708200006, "latitude": 40.818610502699997 }, "geometry": { "type": "Point", "coordinates": [ -73.952078708200006, 40.818610502699997 ] } },
{ "type": "Feature", "properties": { "feature_type": "Misting Station", "property_name": "Col. Young Playground", "borough": "Manhattan", "longitude": -73.936207478900002, "latitude": 40.819056807700001 }, "geometry": { "type": "Point", "coordinates": [ -73.936207478900002, 40.819056807700001 ] } },
{ "type": "Feature", "properties": { "feature_type": "Misting Station", "property_name": "Donnellan Square", "borough": "Manhattan", "longitude": -73.942833092800001, "latitude": 40.826755742700001 }, "geometry": { "type": "Point", "coordinates": [ -73.942833092800001, 40.826755742700001 ] } },
{ "type": "Feature", "properties": { "feature_type": "CS Spray Adapter", "property_name": "Sheltering Arms Playground", "borough": "Manhattan", "longitude": -73.955987254099995, "latitude": 40.815331911199998 }, "geometry": { "type": "Point", "coordinates": [ -73.955987254099995, 40.815331911199998 ] } },
{ "type": "Feature", "properties": { "feature_type": "RPZ Spray Adapter", "property_name": "Decatur Playground", "borough": "Brooklyn", "longitude": -73.936570450199994, "latitude": 40.681247543300003 }, "geometry": { "type": "Point", "coordinates": [ -73.936570450199994, 40.681247543300003 ] } },
{ "type": "Feature", "properties": { "feature_type": "Other", "property_name": "Claremont Park", "borough": "Bronx", "longitude": -73.905419335700003, "latitude": 40.840606794599999 }, "geometry": { "type": "Point", "coordinates": [ -73.905419335700003, 40.840606794599999 ] } },
{ "type": "Feature", "properties": { "feature_type": "Misting Station", "property_name": "Taylor Playground", "borough": "Bronx", "longitude": -73.866125101199998, "latitude": 40.838982488799999 }, "geometry": { "type": "Point", "coordinates": [ -73.866125101199998, 40.838982488799999 ] } },
{ "type": "Feature", "properties": { "feature_type": "Misting Station", "property_name": "Highbridge Park", "borough": "Manhattan", "longitude": -73.925724653800003, "latitude": 40.858359852100001 }, "geometry": { "type": "Point", "coordinates": [ -73.925724653800003, 40.858359852100001 ] } },
{ "type": "Feature", "properties": { "feature_type": "Misting Station", "property_name": "Highbridge Park", "borough": "Manhattan", "longitude": -73.924739407600001, "latitude": 40.857744828599998 }, "geometry": { "type": "Point", "coordinates": [ -73.924739407600001, 40.857744828599998 ] } },
{ "type": "Feature", "properties": { "feature_type": "RPZ Spray Adapter", "property_name": "Highbridge Park", "borough": "Manhattan", "longitude": -73.936140483399996, "latitude": 40.837907998699997 }, "geometry": { "type": "Point", "coordinates": [ -73.936140483399996, 40.837907998699997 ] } },
{ "type": "Feature", "properties": { "feature_type": "Drinking Fountain Spray Adapter", "property_name": "Highbridge Park", "borough": "Manhattan", "longitude": -73.940112649300005, "latitude": 40.831663184 }, "geometry": { "type": "Point", "coordinates": [ -73.940112649300005, 40.831663184 ] } },
{ "type": "Feature", "properties": { "feature_type": "Misting Station", "property_name": "Wright Brothers Playground", "borough": "Manhattan", "longitude": -73.941915268299994, "latitude": 40.831862891999997 }, "geometry": { "type": "Point", "coordinates": [ -73.941915268299994, 40.831862892 ] } },
{ "type": "Feature", "properties": { "feature_type": "Other", "property_name": "Harmony Park", "borough": "Brooklyn", "longitude": -73.934768187200007, "latitude": 40.677984013500001 }, "geometry": { "type": "Point", "coordinates": [ -73.934768187200007, 40.677984013500001 ] } },
{ "type": "Feature", "properties": { "feature_type": "CS Spray Adapter", "property_name": "Renaissance Playground", "borough": "Manhattan", "longitude": -73.941703066100004, "latitude": 40.821657524099997 }, "geometry": { "type": "Point", "coordinates": [ -73.941703066100004, 40.821657524099997 ] } },
{ "type": "Feature", "properties": { "feature_type": "Misting Station", "property_name": "St. Nicholas Playground South", "borough": "Manhattan", "longitude": -73.947090920899996, "latitude": 40.811323217899997 }, "geometry": { "type": "Point", "coordinates": [ -73.947090920899996, 40.811323217899997 ] } },
{ "type": "Feature", "properties": { "feature_type": "Misting Station", "property_name": "Martin Luther King, Jr. Playground", "borough": "Manhattan", "longitude": -73.950491955000004, "latitude": 40.800392922100002 }, "geometry": { "type": "Point", "coordinates": [ -73.950491955, 40.800392922100002 ] } },
{ "type": "Feature", "properties": { "feature_type": "Misting Station", "property_name": "Wagner Houses Pool", "borough": "Manhattan", "longitude": -73.932480879699995, "latitude": 40.801614915999998 }, "geometry": { "type": "Point", "coordinates": [ -73.932480879699995, 40.801614916 ] } },
{ "type": "Feature", "properties": { "feature_type": "Misting Station", "property_name": "John Jay Park", "borough": "Manhattan", "longitude": -73.9493339518, "latitude": 40.769043071200002 }, "geometry": { "type": "Point", "coordinates": [ -73.9493339518, 40.769043071200002 ] } },
{ "type": "Feature", "properties": { "feature_type": "Misting Station", "property_name": "P.O. Reinaldo Salgado Playground", "borough": "Brooklyn", "longitude": -73.9255370594, "latitude": 40.6879125317 }, "geometry": { "type": "Point", "coordinates": [ -73.9255370594, 40.6879125317 ] } },
{ "type": "Feature", "properties": { "feature_type": "Drinking Fountain Spray Adapter", "property_name": "Upper Highland Playground", "borough": "Queens", "longitude": -73.893374929700002, "latitude": 40.683381064599999 }, "geometry": { "type": "Point", "coordinates": [ -73.893374929700002, 40.683381064599999 ] } },
{ "type": "Feature", "properties": { "feature_type": "Misting Station", "property_name": "Wagner Houses Pool", "borough": "Manhattan", "longitude": -73.933283024999994, "latitude": 40.801779891599999 }, "geometry": { "type": "Point", "coordinates": [ -73.933283025, 40.801779891599999 ] } },
{ "type": "Feature", "properties": { "feature_type": "CS Spray Adapter", "property_name": "Inwood Hill Park", "borough": "Manhattan", "longitude": -73.921445185600007, "latitude": 40.870257466399998 }, "geometry": { "type": "Point", "coordinates": [ -73.921445185600007, 40.870257466399998 ] } },
{ "type": "Feature", "properties": { "feature_type": "Misting Station", "property_name": "Kosciuszko Pool", "borough": "Brooklyn", "longitude": -73.9489240037, "latitude": 40.691565583399999 }, "geometry": { "type": "Point", "coordinates": [ -73.9489240037, 40.691565583399999 ] } },
{ "type": "Feature", "properties": { "feature_type": "Misting Station", "property_name": "Marcus Garvey Park", "borough": "Manhattan", "longitude": -73.943176020899998, "latitude": 40.805401787599997 }, "geometry": { "type": "Point", "coordinates": [ -73.943176020899998, 40.805401787599997 ] } },
{ "type": "Feature", "properties": { "feature_type": "Misting Station", "property_name": "Marcus Garvey Park", "borough": "Manhattan", "longitude": -73.943669701000005, "latitude": 40.805356920999998 }, "geometry": { "type": "Point", "coordinates": [ -73.943669701, 40.805356921 ] } }
]
}
