{
"type": "FeatureCollection",
"name": "nyc_boundary",
"crs": { "type": "name", "properties": { "name": "urn:ogc:def:crs:OGC:1.3:CRS84" } },
"features": [
{ "type": "Feature", "properties": { }, "geometry": { "type": "MultiPolygon", "coordinates": [ [ [ [ -74.257233, 40.510259 ], [ -74.254095, 40.515661 ], [ -74.24602, 40.520958 ], [ -74.250284, 40.5423 ], [ -74.247484, 40.549377 ], [ -74.231415, 40.559182 ], [ -74.218003, 40.557058 ], [ -74.214575, 40.560533 ], [ -74.207242, 40.587915 ], [ -74.199589, 40.597846 ], [ -74.199589, 40.600382 ], [ -74.204833, 40.606062 ], [ -74.202425, 40.61677 ], [ -74.203925, 40.62437 ], [ -74.2024, 40.631592 ], [ -74.185641, 40.646042 ], [ -74.14311, 40.64199 ], [ -74.132921, 40.643684 ], [ -74.126018, 40.642151 ], [ -74.109848, 40.648064 ], [ -74.093442, 40.648065 ], [ -74.086986, 40.651506 ], [ -74.055749, 40.651476 ], [ -74.053229, 40.655657 ], [ -74.026257, 40.640132 ], [ -74.021598, 40.644598 ], [ -74.023835, 40.645919 ], [ -74.02146, 40.648182 ], [ -74.019256, 40.646853 ], [ -74.012844, 40.653016 ], [ -74.015048, 40.654362 ], [ -74.013895, 40.655466 ], [ -74.011684, 40.654135 ], [ -74.00879, 40.656963 ], [ -74.006231, 40.6554 ], [ -73.995219, 40.666076 ], [ -73.996528, 40.668894 ], [ -73.990145, 40.676112 ], [ -73.995275, 40.675778 ], [ -74.001454, 40.667633 ], [ -74.0178, 40.662544 ], [ -74.049631, 40.661634 ], [ -74.035443, 40.685125 ], [ -74.019347, 40.679548 ], [ -74.005874, 40.686207 ], [ -74.002993, 40.690427 ], [ -74.000699, 40.690612 ], [ -74.001969, 40.691843 ], [ -74.000959, 40.694069 ], [ -74.002665, 40.69531 ], [ -74.013371, 40.699142 ], [ -74.014289, 40.704549 ], [ -74.025676, 40.704764 ], [ -74.014029, 40.757551 ], [ -73.963577, 40.826642 ], [ -73.952829, 40.851106 ], [ -73.938354, 40.874749 ], [ -73.928722, 40.866743 ], [ -73.92133, 40.869571 ], [ -73.918459, 40.873022 ], [ -73.914009, 40.87116 ], [ -73.910485, 40.874015 ], [ -73.933808, 40.882214 ], [ -73.929821, 40.888682 ], [ -73.918317, 40.917705 ], [ -73.896634, 40.911324 ], [ -73.896458, 40.893706 ], [ -73.89984, 40.886537 ], [ -73.881244, 40.88271 ], [ -73.877918, 40.887212 ], [ -73.878126, 40.882154 ], [ -73.874675, 40.881563 ], [ -73.874946, 40.879948 ], [ -73.87092, 40.880258 ], [ -73.863559, 40.895377 ], [ -73.870487, 40.89664 ], [ -73.87712, 40.895469 ], [ -73.876438, 40.896871 ], [ -73.867876, 40.902983 ], [ -73.859393, 40.900381 ], [ -73.857321, 40.905017 ], [ -73.853802, 40.907179 ], [ -73.854342, 40.908974 ], [ -73.851379, 40.910044 ], [ -73.853528, 40.907465 ], [ -73.841386, 40.904174 ], [ -73.838407, 40.894061 ], [ -73.793016, 40.883361 ], [ -73.813129, 40.886722 ], [ -73.819814, 40.885574 ], [ -73.823296, 40.873098 ], [ -73.821267, 40.869071 ], [ -73.816341, 40.8661 ], [ -73.817557, 40.863588 ], [ -73.812325, 40.860686 ], [ -73.808831, 40.852279 ], [ -73.809303, 40.838034 ], [ -73.801855, 40.840009 ], [ -73.790063, 40.860801 ], [ -73.783302, 40.860779 ], [ -73.784713, 40.855099 ], [ -73.766501, 40.838182 ], [ -73.780193, 40.8264 ], [ -73.778958, 40.811713 ], [ -73.763712, 40.793803 ], [ -73.757103, 40.789692 ], [ -73.750295, 40.782478 ], [ -73.701633, 40.752493 ], [ -73.700169, 40.73954 ], [ -73.707939, 40.727771 ], [ -73.730326, 40.722157 ], [ -73.726971, 40.710715 ], [ -73.72563, 40.679588 ], [ -73.727557, 40.674101 ], [ -73.728331, 40.663044 ], [ -73.724821, 40.65302 ], [ -73.741437, 40.646889 ], [ -73.742283, 40.640121 ], [ -73.73996, 40.635144 ], [ -73.74265, 40.635045 ], [ -73.741201, 40.63759 ], [ -73.743295, 40.638048 ], [ -73.748001, 40.634631 ], [ -73.746372, 40.641523 ], [ -73.748721, 40.645015 ], [ -73.752019, 40.646665 ], [ -73.74835, 40.645358 ], [ -73.74612, 40.648885 ], [ -73.746549, 40.652554 ], [ -73.757617, 40.657354 ], [ -73.761181, 40.658014 ], [ -73.764388, 40.654558 ], [ -73.77401, 40.659779 ], [ -73.787553, 40.663846 ], [ -73.801901, 40.665274 ], [ -73.813337, 40.662806 ], [ -73.832705, 40.665406 ], [ -73.828712, 40.65706 ], [ -73.825337, 40.644248 ], [ -73.835664, 40.644058 ], [ -73.836813, 40.649249 ], [ -73.846792, 40.647796 ], [ -73.848398, 40.654497 ], [ -73.853205, 40.653808 ], [ -73.853617, 40.659735 ], [ -73.873384, 40.646821 ], [ -73.879733, 40.655563 ], [ -73.882213, 40.654498 ], [ -73.874892, 40.645095 ], [ -73.878814, 40.637942 ], [ -73.880739, 40.639613 ], [ -73.885944, 40.636227 ], [ -73.882889, 40.633437 ], [ -73.887476, 40.63012 ], [ -73.892094, 40.628658 ], [ -73.890815, 40.630854 ], [ -73.892771, 40.631809 ], [ -73.899682, 40.627369 ], [ -73.90178, 40.624816 ], [ -73.898261, 40.622989 ], [ -73.901989, 40.620563 ], [ -73.89835, 40.61731 ], [ -73.898559, 40.615172 ], [ -73.902035, 40.61284 ], [ -73.904927, 40.613237 ], [ -73.901698, 40.608223 ], [ -73.901445, 40.604354 ], [ -73.891953, 40.605525 ], [ -73.884456, 40.60944 ], [ -73.871418, 40.578535 ], [ -73.854937, 40.585974 ], [ -73.82733, 40.587801 ], [ -73.810285, 40.595073 ], [ -73.802469, 40.600967 ], [ -73.793652, 40.602623 ], [ -73.789058, 40.605621 ], [ -73.786169, 40.603075 ], [ -73.791078, 40.596633 ], [ -73.78209, 40.597837 ], [ -73.781952, 40.596457 ], [ -73.780147, 40.596335 ], [ -73.774972, 40.601744 ], [ -73.773703, 40.598222 ], [ -73.771676, 40.597985 ], [ -73.772374, 40.608452 ], [ -73.777321, 40.613078 ], [ -73.772268, 40.615136 ], [ -73.765244, 40.614942 ], [ -73.760021, 40.611349 ], [ -73.754732, 40.610405 ], [ -73.74553, 40.611871 ], [ -73.743551, 40.607452 ], [ -73.738265, 40.602557 ], [ -73.737185, 40.592965 ], [ -73.747749, 40.591503 ], [ -73.755502, 40.585387 ], [ -73.75557, 40.583094 ], [ -73.763943, 40.585172 ], [ -73.799826, 40.580332 ], [ -73.841099, 40.569 ], [ -73.876572, 40.555891 ], [ -73.897996, 40.552199 ], [ -73.902306, 40.562128 ], [ -73.909844, 40.560765 ], [ -73.909839, 40.556683 ], [ -73.920987, 40.556275 ], [ -73.929099, 40.553093 ], [ -73.932226, 40.557675 ], [ -73.92807, 40.567786 ], [ -73.885069, 40.573749 ], [ -73.888139, 40.578742 ], [ -73.919693, 40.607311 ], [ -73.924441, 40.605794 ], [ -73.926249, 40.607414 ], [ -73.929868, 40.605071 ], [ -73.936046, 40.609515 ], [ -73.939726, 40.607133 ], [ -73.928131, 40.597778 ], [ -73.929569, 40.59682 ], [ -73.917656, 40.586139 ], [ -73.920972, 40.58458 ], [ -73.931369, 40.586071 ], [ -73.930096, 40.584502 ], [ -73.932042, 40.584234 ], [ -73.931946, 40.582022 ], [ -73.929387, 40.572613 ], [ -74.000721, 40.567048 ], [ -74.016283, 40.57121 ], [ -74.016954, 40.580976 ], [ -74.009468, 40.584235 ], [ -74.00362, 40.589918 ], [ -74.005779, 40.594144 ], [ -74.016019, 40.599547 ], [ -74.031379, 40.602315 ], [ -74.043479, 40.60679 ], [ -74.054866, 40.588784 ], [ -74.108287, 40.544415 ], [ -74.127301, 40.557295 ], [ -74.138641, 40.548475 ], [ -74.133078, 40.543631 ], [ -74.143334, 40.533592 ], [ -74.13382, 40.525764 ], [ -74.20558, 40.498973 ], [ -74.25308, 40.491167 ], [ -74.258754, 40.500103 ], [ -74.257233, 40.510259 ] ], [ [ -73.924877, 40.861541 ], [ -73.927266, 40.857929 ], [ -73.92467, 40.856991 ], [ -73.92708, 40.851432 ], [ -73.935567, 40.841713 ], [ -73.935079, 40.839267 ], [ -73.940346, 40.830458 ], [ -73.935063, 40.835678 ], [ -73.933006, 40.835679 ], [ -73.928106, 40.845579 ], [ -73.920958, 40.855112 ], [ -73.922867, 40.855872 ], [ -73.924877, 40.861541 ] ], [ [ -73.922372, 40.836109 ], [ -73.930956, 40.828335 ], [ -73.930735, 40.82701 ], [ -73.927153, 40.825724 ], [ -73.922372, 40.836109 ] ], [ [ -73.92597, 40.805108 ], [ -73.928225, 40.80385 ], [ -73.925081, 40.802521 ], [ -73.928373, 40.792845 ], [ -73.926135, 40.79135 ], [ -73.930868, 40.791093 ], [ -73.936239, 40.785687 ], [ -73.935433, 40.783249 ], [ -73.927708, 40.780964 ], [ -73.925745, 40.778405 ], [ -73.928277, 40.776899 ], [ -73.923981, 40.774615 ], [ -73.923758, 40.776547 ], [ -73.917966, 40.781256 ], [ -73.919965, 40.782635 ], [ -73.915344, 40.786116 ], [ -73.903093, 40.777462 ], [ -73.89779, 40.780728 ], [ -73.891416, 40.776339 ], [ -73.890174, 40.777851 ], [ -73.887731, 40.766915 ], [ -73.876119, 40.771629 ], [ -73.868831, 40.770733 ], [ -73.854208, 40.757867 ], [ -73.850864, 40.749996 ], [ -73.854421, 40.748805 ], [ -73.834884, 40.719303 ], [ -73.829796, 40.715566 ], [ -73.831385, 40.714529 ], [ -73.819305, 40.717136 ], [ -73.825419, 40.717396 ], [ -73.827309, 40.724646 ], [ -73.833863, 40.730553 ], [ -73.825665, 40.73228 ], [ -73.824812, 40.739631 ], [ -73.829468, 40.737025 ], [ -73.831131, 40.742338 ], [ -73.835861, 40.743228 ], [ -73.832183, 40.75162 ], [ -73.835602, 40.751395 ], [ -73.838054, 40.75483 ], [ -73.837382, 40.763836 ], [ -73.84075, 40.765819 ], [ -73.849215, 40.764209 ], [ -73.853702, 40.76948 ], [ -73.852897, 40.775457 ], [ -73.860505, 40.778984 ], [ -73.86542, 40.78497 ], [ -73.871631, 40.786798 ], [ -73.870207, 40.790909 ], [ -73.862965, 40.79767 ], [ -73.866484, 40.805901 ], [ -73.86115, 40.811421 ], [ -73.865218, 40.814529 ], [ -73.868936, 40.815142 ], [ -73.871515, 40.824715 ], [ -73.873554, 40.82441 ], [ -73.872468, 40.820151 ], [ -73.88338, 40.817351 ], [ -73.880413, 40.809393 ], [ -73.882025, 40.81083 ], [ -73.890036, 40.809629 ], [ -73.890975, 40.813213 ], [ -73.895428, 40.815845 ], [ -73.909127, 40.806166 ], [ -73.906052, 40.803367 ], [ -73.908356, 40.804669 ], [ -73.913242, 40.799937 ], [ -73.92597, 40.805108 ] ], [ [ -73.931637, 40.751367 ], [ -73.944196, 40.742882 ], [ -73.937697, 40.745239 ], [ -73.937651, 40.743305 ], [ -73.927444, 40.742123 ], [ -73.926353, 40.747551 ], [ -73.920798, 40.746891 ], [ -73.920342, 40.749159 ], [ -73.909443, 40.750755 ], [ -73.920621, 40.74974 ], [ -73.922269, 40.751512 ], [ -73.931637, 40.751367 ] ], [ [ -73.913828, 40.742414 ], [ -73.915675, 40.740785 ], [ -73.918885, 40.73272 ], [ -73.917308, 40.731439 ], [ -73.918364, 40.725931 ], [ -73.937525, 40.729815 ], [ -73.942163, 40.735678 ], [ -73.952669, 40.739258 ], [ -73.953044, 40.737596 ], [ -73.950205, 40.736707 ], [ -73.949911, 40.729244 ], [ -73.946245, 40.730487 ], [ -73.946046, 40.729257 ], [ -73.944186, 40.729442 ], [ -73.944612, 40.732071 ], [ -73.942795, 40.732657 ], [ -73.941992, 40.72775 ], [ -73.934123, 40.726855 ], [ -73.936788, 40.724794 ], [ -73.934704, 40.717209 ], [ -73.936339, 40.716779 ], [ -73.932072, 40.707786 ], [ -73.921892, 40.709396 ], [ -73.920745, 40.71053 ], [ -73.92404, 40.714008 ], [ -73.915663, 40.713469 ], [ -73.913261, 40.715067 ], [ -73.915167, 40.718555 ], [ -73.911321, 40.719624 ], [ -73.913845, 40.722898 ], [ -73.905181, 40.728957 ], [ -73.90108, 40.733908 ], [ -73.90517, 40.73586 ], [ -73.906632, 40.732796 ], [ -73.910689, 40.733471 ], [ -73.907556, 40.741659 ], [ -73.913828, 40.742414 ] ], [ [ -73.909449, 40.651522 ], [ -73.919951, 40.644707 ], [ -73.91893, 40.640585 ], [ -73.912915, 40.644177 ], [ -73.912427, 40.646773 ], [ -73.907615, 40.649896 ], [ -73.909449, 40.651522 ] ], [ [ -73.958195, 40.800553 ], [ -73.981431, 40.767874 ], [ -73.973015, 40.764279 ], [ -73.94922, 40.79691 ], [ -73.958195, 40.800553 ] ], [ [ -73.969845, 40.748801 ], [ -73.960211, 40.744511 ], [ -73.957732, 40.747775 ], [ -73.967227, 40.752688 ], [ -73.969845, 40.748801 ] ], [ [ -73.962179, 40.700221 ], [ -73.968389, 40.706829 ], [ -73.972789, 40.709378 ], [ -73.979233, 40.705769 ], [ -73.980544, 40.698246 ], [ -73.962839, 40.698039 ], [ -73.962179, 40.700221 ] ], [ [ -73.962622, 40.671629 ], [ -73.970409, 40.672617 ], [ -73.980228, 40.661047 ], [ -73.974482, 40.658339 ], [ -73.971397, 40.648258 ], [ -73.964654, 40.650887 ], [ -73.966213, 40.653189 ], [ -73.9619, 40.654871 ], [ -73.963075, 40.66217 ], [ -73.960956, 40.663285 ], [ -73.962622, 40.671629 ] ], [ [ -73.995169, 40.659669 ], [ -74.002144, 40.652956 ], [ -73.996088, 40.648307 ], [ -73.989059, 40.644119 ], [ -73.980291, 40.647297 ], [ -73.981796, 40.655246 ], [ -73.988428, 40.65925 ], [ -73.990188, 40.657601 ], [ -73.995169, 40.659669 ] ], [ [ -73.988358, 40.583475 ], [ -73.992523, 40.587984 ], [ -74.003472, 40.583031 ], [ -73.988237, 40.579704 ], [ -73.990006, 40.580676 ], [ -73.988358, 40.583475 ] ], [ [ -74.021216, 40.618472 ], [ -74.024775, 40.609676 ], [ -74.021502, 40.607828 ], [ -74.0213, 40.604363 ], [ -74.018732, 40.60357 ], [ -74.015499, 40.606842 ], [ -74.017019, 40.607655 ], [ -74.011712, 40.612735 ], [ -74.021216, 40.618472 ] ], [ [ -74.200584, 40.579511 ], [ -74.189558, 40.57627 ], [ -74.189389, 40.572558 ], [ -74.180008, 40.571437 ], [ -74.177618, 40.563804 ], [ -74.169827, 40.561078 ], [ -74.168713, 40.585284 ], [ -74.167727, 40.588779 ], [ -74.163317, 40.592508 ], [ -74.168836, 40.594721 ], [ -74.167197, 40.602076 ], [ -74.174836, 40.602324 ], [ -74.185794, 40.590431 ], [ -74.185627, 40.588319 ], [ -74.199795, 40.582103 ], [ -74.200584, 40.579511 ] ], [ [ -74.095546, 40.630265 ], [ -74.098934, 40.626158 ], [ -74.0964, 40.622329 ], [ -74.088904, 40.630292 ], [ -74.095921, 40.631723 ], [ -74.095546, 40.630265 ] ], [ [ -74.006241, 40.649022 ], [ -74.002415, 40.645809 ], [ -74.000662, 40.647487 ], [ -74.005074, 40.650147 ], [ -74.006241, 40.649022 ] ], [ [ -73.97426, 40.693302 ], [ -73.977827, 40.693438 ], [ -73.977098, 40.689773 ], [ -73.973126, 40.689622 ], [ -73.97426, 40.693302 ] ], [ [ -73.950663, 40.755436 ], [ -73.949144, 40.754485 ], [ -73.9397, 40.766411 ], [ -73.935932, 40.767784 ], [ -73.934887, 40.771709 ], [ -73.941312, 40.766918 ], [ -73.950663, 40.755436 ] ], [ [ -73.943525, 40.648541 ], [ -73.942608, 40.644662 ], [ -73.932614, 40.645245 ], [ -73.932996, 40.648744 ], [ -73.943525, 40.648541 ] ], [ [ -73.951746, 40.819573 ], [ -73.95088, 40.818395 ], [ -73.952974, 40.81507 ], [ -73.95086, 40.814187 ], [ -73.950927, 40.812575 ], [ -73.946078, 40.821264 ], [ -73.949921, 40.822073 ], [ -73.951746, 40.819573 ] ], [ [ -73.92835, 40.668647 ], [ -73.928544, 40.664574 ], [ -73.924389, 40.666385 ], [ -73.925539, 40.668493 ], [ -73.92835, 40.668647 ] ], [ [ -73.93742, 40.733762 ], [ -73.931639, 40.729223 ], [ -73.927512, 40.729122 ], [ -73.922573, 40.734286 ], [ -73.931614, 40.736826 ], [ -73.93742, 40.733762 ] ], [ [ -73.865476, 40.720281 ], [ -73.872392, 40.717831 ], [ -73.870165, 40.709208 ], [ -73.859632, 40.713598 ], [ -73.865476, 40.720281 ] ], [ [ -73.84568, 40.70848 ], [ -73.854746, 40.706767 ], [ -73.852151, 40.702251 ], [ -73.855293, 40.702596 ], [ -73.857028, 40.70117 ], [ -73.858579, 40.701238 ], [ -73.85815, 40.702898 ], [ -73.869156, 40.702893 ], [ -73.870802, 40.697877 ], [ -73.868917, 40.69515 ], [ -73.874021, 40.694191 ], [ -73.889607, 40.684214 ], [ -73.888191, 40.682556 ], [ -73.868059, 40.691184 ], [ -73.868717, 40.694622 ], [ -73.852664, 40.697572 ], [ -73.85436, 40.700709 ], [ -73.850706, 40.700208 ], [ -73.84908, 40.698351 ], [ -73.836962, 40.704212 ], [ -73.838102, 40.706223 ], [ -73.837147, 40.707957 ], [ -73.84568, 40.70848 ] ], [ [ -73.90218, 40.767316 ], [ -73.903512, 40.76585 ], [ -73.901553, 40.759626 ], [ -73.898773, 40.759916 ], [ -73.894324, 40.766146 ], [ -73.90218, 40.767316 ] ], [ [ -73.900626, 40.719764 ], [ -73.897268, 40.718147 ], [ -73.899018, 40.717382 ], [ -73.895025, 40.712478 ], [ -73.888546, 40.712275 ], [ -73.887247, 40.710262 ], [ -73.888703, 40.707669 ], [ -73.885532, 40.706446 ], [ -73.877683, 40.707177 ], [ -73.880063, 40.712653 ], [ -73.886879, 40.712223 ], [ -73.887237, 40.714941 ], [ -73.890535, 40.718702 ], [ -73.892838, 40.716006 ], [ -73.894464, 40.718299 ], [ -73.892735, 40.719129 ], [ -73.894268, 40.723142 ], [ -73.900106, 40.723296 ], [ -73.899816, 40.721237 ], [ -73.897397, 40.721551 ], [ -73.900626, 40.719764 ] ], [ [ -73.901805, 40.690766 ], [ -73.905433, 40.68366 ], [ -73.902822, 40.682353 ], [ -73.902764, 40.680745 ], [ -73.900283, 40.679442 ], [ -73.897186, 40.680368 ], [ -73.896518, 40.682397 ], [ -73.901805, 40.690766 ] ], [ [ -73.885534, 40.719172 ], [ -73.884229, 40.717524 ], [ -73.873589, 40.720479 ], [ -73.874161, 40.722192 ], [ -73.882888, 40.721319 ], [ -73.885534, 40.719172 ] ], [ [ -73.852482, 40.675287 ], [ -73.853257, 40.679728 ], [ -73.857669, 40.678739 ], [ -73.856871, 40.676455 ], [ -73.852482, 40.675287 ] ], [ [ -73.896639, 40.8435 ], [ -73.901212, 40.835498 ], [ -73.896966, 40.834343 ], [ -73.886598, 40.839279 ], [ -73.896639, 40.8435 ] ], [ [ -73.915762, 40.858339 ], [ -73.916935, 40.854609 ], [ -73.915448, 40.856498 ], [ -73.909916, 40.856645 ], [ -73.910208, 40.858289 ], [ -73.913284, 40.859619 ], [ -73.915762, 40.858339 ] ], [ [ -73.909547, 40.843045 ], [ -73.909458, 40.837057 ], [ -73.90798, 40.837178 ], [ -73.905, 40.842535 ], [ -73.909547, 40.843045 ] ], [ [ -73.820662, 40.709869 ], [ -73.824933, 40.711783 ], [ -73.827785, 40.71066 ], [ -73.822256, 40.705456 ], [ -73.818313, 40.706164 ], [ -73.820662, 40.709869 ] ], [ [ -73.785767, 40.672396 ], [ -73.781572, 40.676901 ], [ -73.782445, 40.678461 ], [ -73.784123, 40.678066 ], [ -73.784312, 40.683099 ], [ -73.786529, 40.685111 ], [ -73.78613, 40.682989 ], [ -73.788408, 40.681992 ], [ -73.786981, 40.675122 ], [ -73.78989, 40.675202 ], [ -73.785767, 40.672396 ] ], [ [ -73.813707, 40.745653 ], [ -73.814309, 40.742974 ], [ -73.808238, 40.742011 ], [ -73.796951, 40.741933 ], [ -73.794453, 40.745203 ], [ -73.794676, 40.747212 ], [ -73.803352, 40.746432 ], [ -73.802878, 40.749783 ], [ -73.807506, 40.750137 ], [ -73.813707, 40.745653 ] ], [ [ -73.836838, 40.828464 ], [ -73.836032, 40.817856 ], [ -73.836961, 40.816341 ], [ -73.83998, 40.816391 ], [ -73.840426, 40.811873 ], [ -73.837984, 40.806226 ], [ -73.831833, 40.804939 ], [ -73.830676, 40.803108 ], [ -73.823438, 40.80481 ], [ -73.828298, 40.814811 ], [ -73.82319, 40.816673 ], [ -73.826717, 40.821819 ], [ -73.828329, 40.82104 ], [ -73.829459, 40.822377 ], [ -73.824638, 40.824766 ], [ -73.836838, 40.828464 ] ], [ [ -73.842041, 40.840646 ], [ -73.83763, 40.840293 ], [ -73.835559, 40.851964 ], [ -73.831291, 40.855434 ], [ -73.832821, 40.856124 ], [ -73.828521, 40.860746 ], [ -73.836819, 40.857277 ], [ -73.835246, 40.856494 ], [ -73.839629, 40.85475 ], [ -73.84494, 40.84821 ], [ -73.842041, 40.840646 ] ], [ [ -73.84044, 40.884734 ], [ -73.835271, 40.88591 ], [ -73.836434, 40.888935 ], [ -73.841955, 40.888454 ], [ -73.84044, 40.884734 ] ], [ [ -73.775588, 40.743006 ], [ -73.770107, 40.731779 ], [ -73.777575, 40.730193 ], [ -73.775234, 40.725238 ], [ -73.778038, 40.723284 ], [ -73.777385, 40.722442 ], [ -73.769241, 40.725903 ], [ -73.756783, 40.726306 ], [ -73.765551, 40.732544 ], [ -73.7637, 40.732864 ], [ -73.765041, 40.734477 ], [ -73.762486, 40.736731 ], [ -73.767756, 40.74583 ], [ -73.775588, 40.743006 ] ], [ [ -73.791944, 40.701272 ], [ -73.793792, 40.704032 ], [ -73.802409, 40.701852 ], [ -73.797537, 40.698199 ], [ -73.791944, 40.701272 ] ], [ [ -73.801574, 40.750367 ], [ -73.797295, 40.749435 ], [ -73.794719, 40.750648 ], [ -73.794577, 40.753563 ], [ -73.804445, 40.75373 ], [ -73.801574, 40.750367 ] ], [ [ -73.750017, 40.685891 ], [ -73.735822, 40.682255 ], [ -73.73396, 40.685639 ], [ -73.747134, 40.689353 ], [ -73.750017, 40.685891 ] ], [ [ -73.745011, 40.658022 ], [ -73.74197, 40.661484 ], [ -73.73955, 40.665256 ], [ -73.744875, 40.66369 ], [ -73.748581, 40.657587 ], [ -73.745011, 40.658022 ] ], [ [ -73.769742, 40.683778 ], [ -73.764703, 40.689267 ], [ -73.7662, 40.692183 ], [ -73.769631, 40.692681 ], [ -73.774639, 40.691021 ], [ -73.773715, 40.689375 ], [ -73.775755, 40.687691 ], [ -73.769742, 40.683778 ] ], [ [ -73.744151, 40.748217 ], [ -73.746122, 40.746539 ], [ -73.744776, 40.743281 ], [ -73.753473, 40.742405 ], [ -73.749968, 40.739746 ], [ -73.743962, 40.740789 ], [ -73.743068, 40.738441 ], [ -73.740291, 40.738517 ], [ -73.733763, 40.742869 ], [ -73.73543, 40.747161 ], [ -73.741647, 40.753085 ], [ -73.739263, 40.756917 ], [ -73.741208, 40.756205 ], [ -73.745767, 40.76357 ], [ -73.750488, 40.762959 ], [ -73.74877, 40.76408 ], [ -73.750722, 40.766512 ], [ -73.759206, 40.764321 ], [ -73.75585, 40.757765 ], [ -73.752303, 40.759455 ], [ -73.750048, 40.758405 ], [ -73.744151, 40.748217 ] ], [ [ -73.774512, 40.786729 ], [ -73.776337, 40.788487 ], [ -73.774268, 40.786757 ], [ -73.770631, 40.788463 ], [ -73.774718, 40.79486 ], [ -73.778103, 40.79674 ], [ -73.783259, 40.794924 ], [ -73.780792, 40.794036 ], [ -73.782388, 40.791376 ], [ -73.781205, 40.789588 ], [ -73.774512, 40.786729 ] ] ], [ [ [ -73.832324, 40.597815 ], [ -73.828043, 40.597701 ], [ -73.826048, 40.599461 ], [ -73.824568, 40.59817 ], [ -73.823766, 40.60004 ], [ -73.821469, 40.599994 ], [ -73.824452, 40.600797 ], [ -73.819797, 40.610498 ], [ -73.82086, 40.612265 ], [ -73.821631, 40.608496 ], [ -73.8241, 40.61232 ], [ -73.820941, 40.615237 ], [ -73.814161, 40.614649 ], [ -73.816156, 40.612942 ], [ -73.815404, 40.610385 ], [ -73.814503, 40.611058 ], [ -73.815082, 40.607284 ], [ -73.817392, 40.605158 ], [ -73.820712, 40.595171 ], [ -73.834656, 40.595168 ], [ -73.832324, 40.597815 ] ] ] ] } }
]
}
